UNKNOWN                 
1 87557U          25301.31045233  .00005186  00000+0  11622-1 0  9996
2 87557 101.7150 150.9150 0047050 110.3500 250.2678 13.27191560559000
UNKNOWN                 
1 87561U          25305.65107369 -.00000038  00000+0  43622-4 0  9991
2 87561 102.0168   4.3190 0173803   8.5785 146.1007 12.32149992537375
UNKNOWN                 
1 87565U          25299.41093881  .00002035  00000+0  11183-2 0  9997
2 87565  99.9429 286.4074 0172145 299.3560  59.0506 14.05821183609788
UNKNOWN                 
1 87569U          25302.96363951 -.00000022  00000+0  13366-3 0  9995
2 87569 101.9894 118.6333 0055597 339.4550 175.5851 12.68539012552915
UNKNOWN                 
1 87587U          25305.38663162  .00000272  00000+0  94515-4 0  9993
2 87587  74.0241 179.3624 0021297 227.7223 132.2127 14.40024268627850
UNKNOWN                 
1 87590U          25305.59141703  .00000713  00000+0  42555-3 0  9998
2 87590  98.7935 343.6372 0027123  42.2776 109.5100 14.10244803148447
UNKNOWN                 
1 87616U          25298.30237366  .00000299  00000+0  11794-2 0  9997
2 87616  66.0318 243.8186 0634293 160.2602 352.5311 12.46829466530196
UNKNOWN                 
1 87624U          25305.59346181  .00008540  00000+0  13526-2 0  9994
2 87624  98.6743 240.4508 0100799  17.8262 342.6436 14.69114833574230
UNKNOWN                 
1 87650U          25304.21257407  .00016018  00000+0  33075-2 0  9993
2 87650 100.2713 109.3332 0032199  45.0016 315.3778 14.60170284 73550
UNKNOWN                 
1 87672U          25293.87834996  .00001939  00000+0  79499-3 0  9997
2 87672  70.8562 120.8372 0059359 351.7560   8.2586 14.27451125616915
UNKNOWN                 
1 87681U          25303.09149652  .00000951  00000+0  10480-2 0  9998
2 87681  66.7357 202.0558 0159742 191.7873 167.9439 13.70967531595855
UNKNOWN                 
1 87690U          25305.06600389  .00006458  00000+0  10002-2 0  9994
2 87690  65.7923 102.2956 0578249  69.0684 297.1271 13.99912802601546
